{
    "links": {
        "self": "http://www.neowsapp.com/rest/v1/neo/3773757?api_key=iIulBulltgU6a56xZRHN4H3l9WmuAYTsLGpBGhQ2"
    },
    "id": "3773757",
    "neo_reference_id": "3773757",
    "name": "(2017 GP4)",
    "designation": "2017 GP4",
    "nasa_jpl_url": "http://ssd.jpl.nasa.gov/sbdb.cgi?sstr=3773757",
    "absolute_magnitude_h": 26.1,
    "estimated_diameter": {
        "kilometers": {
            "estimated_diameter_min": 0.0160160338,
            "estimated_diameter_max": 0.0358129403
        },
        "meters": {
            "estimated_diameter_min": 16.0160337979,
            "estimated_diameter_max": 35.8129403019
        },
        "miles": {
            "estimated_diameter_min": 0.0099518989,
            "estimated_diameter_max": 0.0222531225
        },
        "feet": {
            "estimated_diameter_min": 52.5460443254,
            "estimated_diameter_max": 117.4965270602
        }
    },
    "is_potentially_hazardous_asteroid": false,
    "close_approach_data": [
        {
            "close_approach_date": "2017-04-12",
            "close_approach_date_full": "2017-Apr-12 03:54",
            "epoch_date_close_approach": 1491969240000,
            "relative_velocity": {
                "kilometers_per_second": "13.3565739781",
                "kilometers_per_hour": "48083.6663212072",
                "miles_per_hour": "29877.3203316412"
            },
            "miss_distance": {
                "astronomical": "0.029316908",
                "lunar": "11.404277212",
                "kilometers": "4385746.99178596",
                "miles": "2725176.812567848"
            },
            "orbiting_body": "Earth"
        }
    ],
    "orbital_data": {
        "orbit_id": "3",
        "orbit_determination_date": "2018-02-10 07:08:54",
        "first_observation_date": "2017-04-01",
        "last_observation_date": "2017-04-04",
        "data_arc_in_days": 3,
        "observations_used": 21,
        "orbit_uncertainty": "8",
        "minimum_orbit_intersection": ".0255598",
        "jupiter_tisserand_invariant": "3.719",
        "epoch_osculation": "2457845.5",
        "eccentricity": ".553444130034012",
        "semi_major_axis": "1.921444517797091",
        "inclination": "2.832577245822024",
        "ascending_node_longitude": "352.9197852645149",
        "orbital_period": "972.8372687828057",
        "perihelion_distance": ".8580323282362582",
        "perihelion_argument": "264.7379150149433",
        "aphelion_distance": "2.984856707357924",
        "perihelion_time": "2457895.255248833150",
        "mean_anomaly": "341.5879899396278",
        "mean_motion": ".370051612486459",
        "equinox": "J2000",
        "orbit_class": {
            "orbit_class_type": "APO",
            "orbit_class_description": "Near-Earth asteroid orbits which cross the Earth’s orbit similar to that of 1862 Apollo",
            "orbit_class_range": "a (semi-major axis) > 1.0 AU; q (perihelion) < 1.017 AU"
        }
    },
    "is_sentry_object": false
}